{"type": "FeatureCollection", "features": [ {"type": "Feature", "properties": {"norad_id": 30385, "name": "FENGYUN 1C DEB", "group": "fengyun-1c-debris", "lat": -29.078861453267297, "lon": 174.79984882561365, "alt_km": 784.8260298386949, "timestamp": "2025-12-05T14:45:15.575041+00:00", "meta": {"OBJECT_NAME": "FENGYUN 1C DEB", "OBJECT_ID": "1999-025ACY", "EPOCH": "2025-12-04T14:58:34.000032", "MEAN_MOTION": 14.3876091, "ECCENTRICITY": 0.0124947, "INCLINATION": 99.0826, "RA_OF_ASC_NODE": 358.8553, "ARG_OF_PERICENTER": 313.5819, "MEAN_ANOMALY": 168.43, "EPHEMERIS_TYPE": 0, "CLASSIFICATION_TYPE": "U", "NORAD_CAT_ID": 30385, "ELEMENT_SET_NO": 999, "REV_AT_EPOCH": 98652, "BSTAR": 0.00056468, "MEAN_MOTION_DOT": 1.846e-05, "MEAN_MOTION_DDOT": 0}, "tle": {"line1": "1 30385U 99025ACY 25338.62400463  .00001846  00000+0  56468-3 0  9990", "line2": "2 30385  99.0826 358.8553 0124947 313.5819 168.4300 14.38760910986520"}}, "geometry": {"type": "Point", "coordinates": [174.79984882561365, -29.078861453267297]}}, {"type": "Feature", "properties": {"norad_id": 30386, "name": "FENGYUN 1C DEB", "group": "fengyun-1c-debris", "lat": -81.28496769723161, "lon": -38.140851455083116, "alt_km": 1076.8674178776646, "timestamp": "2025-12-05T14:45:15.575051+00:00", "meta": {"OBJECT_NAME": "FENGYUN 1C DEB", "OBJECT_ID": "1999-025ACZ", "EPOCH": "2025-12-04T16:28:25.804128", "MEAN_MOTION": 13.5554009, "ECCENTRICITY": 0.030345, "INCLINATION": 98.6903, "RA_OF_ASC_NODE": 234.9127, "ARG_OF_PERICENTER": 176.783, "MEAN_ANOMALY": 242.4235, "EPHEMERIS_TYPE": 0, "CLASSIFICATION_TYPE": "U", "NORAD_CAT_ID": 30386, "ELEMENT_SET_NO": 999, "REV_AT_EPOCH": 92720, "BSTAR": 0.00216, "MEAN_MOTION_DOT": 1.98e-05, "MEAN_MOTION_DDOT": 0}, "tle": {"line1": "1 30386U 99025ACZ 25338.68640977  .00001980  00000+0  21600-2 0  9991", "line2": "2 30386  98.6903 234.9127 0303450 176.7830 242.4235 13.55540090927206"}}, "geometry": {"type": "Point", "coordinates": [-38.140851455083116, -81.28496769723161]}}, {"type": "Feature", "properties": {"norad_id": 30387, "name": "FENGYUN 1C DEB", "group": "fengyun-1c-debris", "lat": -73.95621259896251, "lon": 26.88733147702886, "alt_km": 850.300170286162, "timestamp": "2025-12-05T14:45:15.575062+00:00", "meta": {"OBJECT_NAME": "FENGYUN 1C DEB", "OBJECT_ID": "1999-025ADA", "EPOCH": "2025-12-03T12:54:51.143616", "MEAN_MOTION": 14.15037786, "ECCENTRICITY": 0.0001174, "INCLINATION": 98.6571, "RA_OF_ASC_NODE": 352.8816, "ARG_OF_PERICENTER": 100.1454, "MEAN_ANOMALY": 50.5263, "EPHEMERIS_TYPE": 0, "CLASSIFICATION_TYPE": "U", "NORAD_CAT_ID": 30387, "ELEMENT_SET_NO": 999, "REV_AT_EPOCH": 97194, "BSTAR": 0.00037543966, "MEAN_MOTION_DOT": 6.85e-06, "MEAN_MOTION_DDOT": 0}, "tle": {"line1": "1 30387U 99025ADA 25337.53809194  .00000685  00000+0  37544-3 0  9999", "line2": "2 30387  98.6571 352.8816 0001174 100.1454  50.5263 14.15037786971943"}}, "geometry": {"type": "Point", "coordinates": [26.88733147702886, -73.95621259896251]}}, {"type": "Feature", "properties": {"norad_id": 30388, "name": "FENGYUN 1C DEB", "group": "fengyun-1c-debris", "lat": 74.21919439881385, "lon": -31.896713986150566, "alt_km": 659.8818614482043, "timestamp": "2025-12-05T14:45:15.575072+00:00", "meta": {"OBJECT_NAME": "FENGYUN 1C DEB", "OBJECT_ID": "1999-025ADB", "EPOCH": "2025-12-04T15:18:21.680352", "MEAN_MOTION": 14.19740071, "ECCENTRICITY": 0.0222379, "INCLINATION": 98.5999, "RA_OF_ASC_NODE": 359.5295, "ARG_OF_PERICENTER": 86.1521, "MEAN_ANOMALY": 40.1249, "EPHEMERIS_TYPE": 0, "CLASSIFICATION_TYPE": "U", "NORAD_CAT_ID": 30388, "ELEMENT_SET_NO": 999, "REV_AT_EPOCH": 97317, "BSTAR": 0.0007493, "MEAN_MOTION_DOT": 1.988e-05, "MEAN_MOTION_DDOT": 0}, "tle": {"line1": "1 30388U 99025ADB 25338.63775093  .00001988  00000+0  74930-3 0  9999", "line2": "2 30388  98.5999 359.5295 0222379  86.1521  40.1249 14.19740071973170"}}, "geometry": {"type": "Point", "coordinates": [-31.896713986150566, 74.21919439881385]}}, {"type": "Feature", "properties": {"norad_id": 30389, "name": "FENGYUN 1C DEB", "group": "fengyun-1c-debris", "lat": -41.313158869583, "lon": -127.28115494215923, "alt_km": 742.8834842894321, "timestamp": "2025-12-05T14:45:15.575082+00:00", "meta": {"OBJECT_NAME": "FENGYUN 1C DEB", "OBJECT_ID": "1999-025ADC", "EPOCH": "2025-12-04T04:35:49.951104", "MEAN_MOTION": 14.43836874, "ECCENTRICITY": 0.00137635, "INCLINATION": 98.8395, "RA_OF_ASC_NODE": 59.1026, "ARG_OF_PERICENTER": 243.9894, "MEAN_ANOMALY": 144.4012, "EPHEMERIS_TYPE": 0, "CLASSIFICATION_TYPE": "U", "NORAD_CAT_ID": 30389, "ELEMENT_SET_NO": 999, "REV_AT_EPOCH": 97663, "BSTAR": 0.0054281724, "MEAN_MOTION_DOT": 0.00018515, "MEAN_MOTION_DDOT": 0}, "tle": {"line1": "1 30389U 99025ADC 25338.19155036  .00018515  00000+0  54282-2 0  9991", "line2": "2 30389  98.8395  59.1026 0013763 243.9894 144.4012 14.43836874976634"}}, "geometry": {"type": "Point", "coordinates": [-127.28115494215923, -41.313158869583]}}, {"type": "Feature", "properties": {"norad_id": 30390, "name": "FENGYUN 1C DEB", "group": "fengyun-1c-debris", "lat": 67.78801283330112, "lon": 40.36994449215299, "alt_km": 806.906826131516, "timestamp": "2025-12-05T14:45:15.575092+00:00", "meta": {"OBJECT_NAME": "FENGYUN 1C DEB", "OBJECT_ID": "1999-025ADD", "EPOCH": "2025-12-04T05:05:24.491328", "MEAN_MOTION": 14.29600535, "ECCENTRICITY": 0.0068168, "INCLINATION": 98.8238, "RA_OF_ASC_NODE": 61.3082, "ARG_OF_PERICENTER": 188.9136, "MEAN_ANOMALY": 226.4235, "EPHEMERIS_TYPE": 0, "CLASSIFICATION_TYPE": "U", "NORAD_CAT_ID": 30390, "ELEMENT_SET_NO": 999, "REV_AT_EPOCH": 97262, "BSTAR": 0.0044949, "MEAN_MOTION_DOT": 0.00011772, "MEAN_MOTION_DDOT": 0}, "tle": {"line1": "1 30390U 99025ADD 25338.21208902  .00011772  00000+0  44949-2 0  9994", "line2": "2 30390  98.8238  61.3082 0068168 188.9136 226.4235 14.29600535972625"}}, "geometry": {"type": "Point", "coordinates": [40.36994449215299, 67.78801283330112]}}, {"type": "Feature", "properties": {"norad_id": 30391, "name": "FENGYUN 1C DEB", "group": "fengyun-1c-debris", "lat": -29.927870880235997, "lon": 30.823177926153715, "alt_km": 809.0279030216689, "timestamp": "2025-12-05T14:45:15.575103+00:00", "meta": {"OBJECT_NAME": "FENGYUN 1C DEB", "OBJECT_ID": "1999-025ADE", "EPOCH": "2025-12-04T01:53:58.713792", "MEAN_MOTION": 14.16176465, "ECCENTRICITY": 0.00711186, "INCLINATION": 98.782, "RA_OF_ASC_NODE": 24.2035, "ARG_OF_PERICENTER": 287.0505, "MEAN_ANOMALY": 137.5795, "EPHEMERIS_TYPE": 0, "CLASSIFICATION_TYPE": "U", "NORAD_CAT_ID": 30391, "ELEMENT_SET_NO": 999, "REV_AT_EPOCH": 96756, "BSTAR": 0.0021891479, "MEAN_MOTION_DOT": 4.397e-05, "MEAN_MOTION_DDOT": 0}, "tle": {"line1": "1 30391U 99025ADE 25338.07915178  .00004397  00000+0  21891-2 0  9995", "line2": "2 30391  98.7820  24.2035 0071118 287.0505 137.5795 14.16176465967564"}}, "geometry": {"type": "Point", "coordinates": [30.823177926153715, -29.927870880235997]}}, {"type": "Feature", "properties": {"norad_id": 30392, "name": "FENGYUN 1C DEB", "group": "fengyun-1c-debris", "lat": -4.665631784650276, "lon": 177.669557257661, "alt_km": 1000.0574125213243, "timestamp": "2025-12-05T14:45:15.575113+00:00", "meta": {"OBJECT_NAME": "FENGYUN 1C DEB", "OBJECT_ID": "1999-025ADF", "EPOCH": "2025-12-03T21:29:46.055616", "MEAN_MOTION": 14.07418179, "ECCENTRICITY": 0.01814973, "INCLINATION": 98.7862, "RA_OF_ASC_NODE": 356.7203, "ARG_OF_PERICENTER": 21.8061, "MEAN_ANOMALY": 97.0369, "EPHEMERIS_TYPE": 0, "CLASSIFICATION_TYPE": "U", "NORAD_CAT_ID": 30392, "ELEMENT_SET_NO": 999, "REV_AT_EPOCH": 96546, "BSTAR": 0.0010499847, "MEAN_MOTION_DOT": 2.01e-05, "MEAN_MOTION_DDOT": 0}, "tle": {"line1": "1 30392U 99025ADF 25337.89567194  .00002010  00000+0  10500-2 0  9991", "line2": "2 30392  98.7862 356.7203 0181497  21.8061  97.0369 14.07418179965469"}}, "geometry": {"type": "Point", "coordinates": [177.669557257661, -4.665631784650276]}}, {"type": "Feature", "properties": {"norad_id": 30393, "name": "FENGYUN 1C DEB", "group": "fengyun-1c-debris", "lat": 46.07046757101558, "lon": -132.95156769198155, "alt_km": 935.4354329988882, "timestamp": "2025-12-05T14:45:15.575123+00:00", "meta": {"OBJECT_NAME": "FENGYUN 1C DEB", "OBJECT_ID": "1999-025ADG", "EPOCH": "2025-12-04T16:22:48.877824", "MEAN_MOTION": 13.98974146, "ECCENTRICITY": 0.0069565, "INCLINATION": 99.1648, "RA_OF_ASC_NODE": 36.4691, "ARG_OF_PERICENTER": 282.2783, "MEAN_ANOMALY": 198.6843, "EPHEMERIS_TYPE": 0, "CLASSIFICATION_TYPE": "U", "NORAD_CAT_ID": 30393, "ELEMENT_SET_NO": 999, "REV_AT_EPOCH": 96217, "BSTAR": 0.00039331, "MEAN_MOTION_DOT": 5.34e-06, "MEAN_MOTION_DDOT": 0}, "tle": {"line1": "1 30393U 99025ADG 25338.68251016  .00000534  00000+0  39331-3 0  9996", "line2": "2 30393  99.1648  36.4691 0069565 282.2783 198.6843 13.98974146962175"}}, "geometry": {"type": "Point", "coordinates": [-132.95156769198155, 46.07046757101558]}}, {"type": "Feature", "properties": {"norad_id": 30394, "name": "FENGYUN 1C DEB", "group": "fengyun-1c-debris", "lat": -5.8853227458738555, "lon": -173.27302448754983, "alt_km": 884.1859985435849, "timestamp": "2025-12-05T14:45:15.575134+00:00", "meta": {"OBJECT_NAME": "FENGYUN 1C DEB", "OBJECT_ID": "1999-025ADH", "EPOCH": "2025-12-04T16:04:42.358080", "MEAN_MOTION": 13.95775958, "ECCENTRICITY": 0.008995, "INCLINATION": 99.4354, "RA_OF_ASC_NODE": 6.742, "ARG_OF_PERICENTER": 123.0882, "MEAN_ANOMALY": 356.8115, "EPHEMERIS_TYPE": 0, "CLASSIFICATION_TYPE": "U", "NORAD_CAT_ID": 30394, "ELEMENT_SET_NO": 999, "REV_AT_EPOCH": 95991, "BSTAR": 0.00057305, "MEAN_MOTION_DOT": 7.63e-06, "MEAN_MOTION_DDOT": 0}, "tle": {"line1": "1 30394U 99025ADH 25338.66993470  .00000763  00000+0  57305-3 0  9997", "line2": "2 30394  99.4354   6.7420 0089950 123.0882 356.8115 13.95775958959910"}}, "geometry": {"type": "Point", "coordinates": [-173.27302448754983, -5.8853227458738555]}}]}